OBJECT_NAME,OBJECT_ID,EPOCH,MEAN_MOTION,ECCENTRICITY,INCLINATION,RA_OF_ASC_NODE,ARG_OF_PERICENTER,MEAN_ANOMALY,EPHEMERIS_TYPE,CLASSIFICATION_TYPE,NORAD_CAT_ID,ELEMENT_SET_NO,REV_AT_EPOCH,BSTAR,MEAN_MOTION_DOT,MEAN_MOTION_DDOT
QIANFAN-197,2026-125Q,2026-07-01T14:10:31.785888,14.22743927,.00154395,88.9956,278.7957,129.0143,231.2426,0,U,69415,999,374,.18774314E-3,.436E-5,0
QIANFAN-198,2026-125R,2026-07-01T14:19:50.385216,14.22070629,.00157473,88.9956,278.7967,128.4689,231.7918,0,U,69416,999,375,.19026844E-3,.436E-5,0
QIANFAN-199,2026-125S,2026-07-01T13:56:50.680032,14.23634340,.001748,88.9956,278.7942,129.2460,231.0287,0,U,69417,999,375,.19303377E-3,.455E-5,0
QIANFAN-200,2026-125T,2026-07-01T13:26:24.032832,14.19644103,.0016484,88.9956,278.8097,127.6079,232.6611,0,U,69418,999,374,.19270696E-3,.422E-5,0
STARLINK-37537,2026-126A,2026-07-01T08:09:59.169888,15.75286387,.00018143,97.2837,43.0110,76.2885,283.8582,0,U,69420,999,497,.15204025E-2,.233945E-2,0
STARLINK-37585,2026-126B,2026-07-01T03:20:17.655072,15.75193045,.00016262,97.2837,42.8277,158.6116,201.5217,0,U,69421,999,494,.23467932E-2,.365361E-2,0
STARLINK-37573,2026-126C,2026-07-01T09:46:02.369568,15.75213800,.00017351,97.2836,43.0727,80.9101,279.2361,0,U,69422,999,498,.18122342E-2,.279502E-2,0
STARLINK-37820,2026-126D,2026-07-01T14:00:01.999872,15.75148088,.00013722,97.2839,43.3791,89.9424,105.7368,0,U,69423,999,502,.10938965E-4,.1499E-4,0
STARLINK-37822,2026-126E,2026-07-01T04:24:51.435360,15.75199200,.00024135,97.2826,42.9191,59.4896,300.6607,0,U,69424,999,495,.21158835E-2,.328034E-2,0
STARLINK-37836,2026-126F,2026-07-01T14:00:01.999872,15.75169896,.00014495,97.2842,43.3858,72.8563,138.8090,0,U,69425,999,502,-.19037096E-3,-.28406E-3,0
STARLINK-37850,2026-126G,2026-07-01T14:00:01.999872,15.75145877,.00014875,97.2836,43.3743,93.0193,90.6601,0,U,69426,999,507,.6559033E-4,.9646E-4,0
STARLINK-37823,2026-126H,2026-07-01T03:02:31.334784,15.75352577,.00010252,97.2827,42.8436,46.3530,313.7820,0,U,69427,999,494,.20776845E-2,.324102E-2,0
STARLINK-37834,2026-126J,2026-07-01T12:23:35.164608,15.75301060,.00014974,97.2830,43.2331,69.0186,291.1239,0,U,69428,999,500,.17045676E-2,.263378E-2,0
STARLINK-37857,2026-126K,2026-07-01T06:01:24.419712,15.75294238,.0001274,97.2820,42.9815,79.6107,280.5302,0,U,69429,999,496,.15192E-2,.233837E-2,0
STARLINK-37866,2026-126L,2026-07-01T14:00:01.999872,15.75150578,.00013387,97.2846,43.3908,86.2472,137.4278,0,U,69430,999,507,.8804568E-5,.1182E-4,0
STARLINK-37555,2026-126M,2026-07-01T08:47:06.339840,15.75253703,.00013973,97.2838,43.1309,75.5468,284.5952,0,U,69431,999,503,.15785679E-2,.24281E-2,0
STARLINK-37870,2026-126N,2026-07-01T08:42:00.958176,15.75256040,.00025783,97.2847,43.1356,72.1062,288.0484,0,U,69432,999,498,.16623239E-2,.25614E-2,0
STARLINK-37872,2026-126P,2026-07-01T14:00:01.999872,15.76208926,.00019853,97.2847,43.4050,83.5233,173.4992,0,U,69433,999,502,-.99763501E-2,-.1384981E-1,0
STARLINK-37815,2026-126Q,2026-07-01T08:00:20.092032,15.75261624,.00021752,97.2831,43.0202,71.1038,289.0463,0,U,69434,999,497,.13109101E-2,.200692E-2,0
STARLINK-37801,2026-126R,2026-07-01T03:05:33.987840,15.75212911,.00012851,97.2834,42.8414,117.6954,242.4441,0,U,69435,999,499,.15637284E-2,.240023E-2,0
STARLINK-37800,2026-126S,2026-07-01T12:17:29.400576,15.75339464,.00014508,97.2825,43.2380,90.8856,269.2576,0,U,69436,999,500,.23472115E-2,.367854E-2,0
STARLINK-37792,2026-126T,2026-06-30T17:06:54.999648,15.80070124,.00008245,97.2817,42.4869,142.4018,217.7307,0,U,69437,999,493,.12484212E-2,.237431E-2,0
STARLINK-37783,2026-126U,2026-07-01T14:00:01.999872,15.75160443,.000138,97.2847,43.4002,83.1530,162.4845,0,U,69438,999,507,.15757024E-3,.23407E-3,0
STARLINK-37771,2026-126V,2026-07-01T09:37:54.302880,15.75269219,.00013002,97.2824,43.0820,95.5332,264.6082,0,U,69439,999,498,.13319341E-2,.204053E-2,0
STARLINK-37747,2026-126W,2026-07-01T13:27:37.249920,15.75257848,.0001337,97.2830,43.3246,76.4797,283.6617,0,U,69440,999,501,.92278058E-3,.140201E-2,0
STARLINK-37629,2026-127A,2026-07-01T12:26:03.954048,15.75339227,.00012152,53.1577,191.1908,130.5327,229.5799,0,U,69443,999,366,.12629755E-2,.198434E-2,0
STARLINK-37509,2026-127B,2026-07-01T07:45:55.391328,15.75339667,.00014178,53.1588,192.1089,99.7740,260.3440,0,U,69444,999,363,.13858647E-2,.218327E-2,0
STARLINK-37641,2026-127C,2026-07-01T11:59:55.444992,15.75325605,.00009461,53.1573,191.0693,95.4561,264.6567,0,U,69445,999,366,.10217231E-2,.159569E-2,0
STARLINK-37522,2026-127D,2026-07-01T12:19:31.985760,15.75316595,.00011749,53.1592,191.1606,105.8509,254.2641,0,U,69446,999,366,.99390659E-3,.155062E-2,0
