QIANFAN-197             
1 69415U 26125Q   26182.59064567  .00000436  00000+0  18774-3 0  9994
2 69415  88.9956 278.7957 0015439 129.0143 231.2426 14.22743927  3744
QIANFAN-198             
1 69416U 26125R   26182.59711094  .00000436  00000+0  19027-3 0  9991
2 69416  88.9956 278.7967 0015747 128.4689 231.7918 14.22070629  3750
QIANFAN-199             
1 69417U 26125S   26182.58114213  .00000455  00000+0  19303-3 0  9999
2 69417  88.9956 278.7942 0017480 129.2460 231.0287 14.23634340  3755
QIANFAN-200             
1 69418U 26125T   26182.56000038  .00000422  00000+0  19271-3 0  9995
2 69418  88.9956 278.8097 0016484 127.6079 232.6611 14.19644103  3749
STARLINK-37537          
1 69420U 26126A   26182.34026817  .00233945  00000+0  15204-2 0  9997
2 69420  97.2837  43.0110 0001814  76.2885 283.8582 15.75286387  4976
STARLINK-37585          
1 69421U 26126B   26182.13909323  .00365361  00000+0  23468-2 0  9996
2 69421  97.2837  42.8277 0001626 158.6116 201.5217 15.75193045  4948
STARLINK-37573          
1 69422U 26126C   26182.40697187  .00279502  00000+0  18122-2 0  9991
2 69422  97.2836  43.0727 0001735  80.9101 279.2361 15.75213800  4981
STARLINK-37820          
1 69423U 26126D   26182.58335648  .00001499  00000+0  10939-4 0  9990
2 69423  97.2839  43.3791 0001372  89.9424 105.7368 15.75148088  5024
STARLINK-37822          
1 69424U 26126E   26182.18392865  .00328034  00000+0  21159-2 0  9992
2 69424  97.2826  42.9191 0002413  59.4896 300.6607 15.75199200  4957
STARLINK-37836          
1 69425U 26126F   26182.58335648 -.00028406  00000+0 -19037-3 0  9998
2 69425  97.2842  43.3858 0001449  72.8563 138.8090 15.75169896  5023
STARLINK-37850          
1 69426U 26126G   26182.58335648  .00009646  00000+0  65590-4 0  9998
2 69426  97.2836  43.3743 0001487  93.0193  90.6601 15.75145877  5077
STARLINK-37823          
1 69427U 26126H   26182.12675156  .00324102  00000+0  20777-2 0  9993
2 69427  97.2827  42.8436 0001025  46.3530 313.7820 15.75352577  4949
STARLINK-37834          
1 69428U 26126J   26182.51637922  .00263378  00000+0  17046-2 0  9998
2 69428  97.2830  43.2331 0001497  69.0186 291.1239 15.75301060  5007
STARLINK-37857          
1 69429U 26126K   26182.25097708  .00233837  00000+0  15192-2 0  9999
2 69429  97.2820  42.9815 0001274  79.6107 280.5302 15.75294238  4968
STARLINK-37866          
1 69430U 26126L   26182.58335648  .00001182  00000+0  88046-5 0  9992
2 69430  97.2846  43.3908 0001338  86.2472 137.4278 15.75150578  5079
STARLINK-37555          
1 69431U 26126M   26182.36604560  .00242810  00000+0  15786-2 0  9994
2 69431  97.2838  43.1309 0001397  75.5468 284.5952 15.75253703  5038
STARLINK-37870          
1 69432U 26126N   26182.36251109  .00256140  00000+0  16623-2 0  9994
2 69432  97.2847  43.1356 0002578  72.1062 288.0484 15.75256040  4985
STARLINK-37872          
1 69433U 26126P   26182.58335648 -.01384981  00000+0 -99764-2 0  9995
2 69433  97.2847  43.4050 0001985  83.5233 173.4992 15.76208926  5025
STARLINK-37815          
1 69434U 26126Q   26182.33356588  .00200692  00000+0  13109-2 0  9997
2 69434  97.2831  43.0202 0002175  71.1038 289.0463 15.75261624  4975
STARLINK-37801          
1 69435U 26126R   26182.12886560  .00240023  00000+0  15637-2 0  9993
2 69435  97.2834  42.8414 0001285 117.6954 242.4441 15.75212911  4991
STARLINK-37800          
1 69436U 26126S   26182.51214584  .00367854  00000+0  23472-2 0  9996
2 69436  97.2825  43.2380 0001450  90.8856 269.2576 15.75339464  5008
STARLINK-37792          
1 69437U 26126T   26181.71313657  .00237431  00000+0  12484-2 0  9997
2 69437  97.2817  42.4869 0000824 142.4018 217.7307 15.80070124  4933
STARLINK-37783          
1 69438U 26126U   26182.58335648  .00023407  00000+0  15757-3 0  9991
2 69438  97.2847  43.4002 0001380  83.1530 162.4845 15.75160443  5072
STARLINK-37771          
1 69439U 26126V   26182.40132295  .00204053  00000+0  13319-2 0  9995
2 69439  97.2824  43.0820 0001300  95.5332 264.6082 15.75269219  4989
STARLINK-37747          
1 69440U 26126W   26182.56084780  .00140201  00000+0  92278-3 0  9995
2 69440  97.2830  43.3246 0001337  76.4797 283.6617 15.75257848  5011
STARLINK-37629          
1 69443U 26127A   26182.51810132  .00198434  00000+0  12630-2 0  9996
2 69443  53.1577 191.1908 0001215 130.5327 229.5799 15.75339227  3667
STARLINK-37509          
1 69444U 26127B   26182.32355777  .00218327  00000+0  13859-2 0  9993
2 69444  53.1588 192.1089 0001417  99.7740 260.3440 15.75339667  3631
STARLINK-37641          
1 69445U 26127C   26182.49994728  .00159569  00000+0  10217-2 0  9994
2 69445  53.1573 191.0693 0000946  95.4561 264.6567 15.75325605  3662
STARLINK-37522          
1 69446U 26127D   26182.51356465  .00155062  00000+0  99391-3 0  9993
2 69446  53.1592 191.1606 0001174 105.8509 254.2641 15.75316595  3667
